STARLINK-35710          
1 66212U 25244G   25324.25002315 -.02043239  00000+0 -46380-1 0  9994
2 66212  53.1596  22.0242 0001713  88.1080 162.4349 15.45953842  4725
STARLINK-34204          
1 66213U 25244H   25324.25002315 -.02052312  00000+0 -51399-1 0  9993
2 66213  53.1599  22.0499 0001502  85.9658 151.7705 15.43110090  4911
STARLINK-35714          
1 66214U 25244J   25324.13845595  .00072566  00000+0  12976-2 0  9994
2 66214  53.1598  22.5335 0003305  78.4806 281.6574 15.49372438  4830
STARLINK-35712          
1 66215U 25244K   25324.26678293  .00048013  00000+0  86561-3 0  9990
2 66215  53.1598  21.9119 0001175  86.8014 273.3130 15.49322845  4856
STARLINK-35709          
1 66216U 25244L   25324.25002315 -.02040734  00000+0 -46335-1 0  9995
2 66216  53.1595  22.0209 0001664  91.8488 160.5824 15.45942636  4590
STARLINK-35700          
1 66217U 25244M   25324.00003472 -.01722370  00000+0 -34250-1 0  9999
2 66217  53.1603  23.2026 0000916  96.7453 207.0168 15.49697071  4554
STARLINK-35722          
1 66218U 25244N   25324.20331436  .00095012  00000+0  16945-2 0  9991
2 66218  53.1612  22.2289 0000965 207.8193 152.2764 15.49329213  4840
STARLINK-35737          
1 66219U 25244P   25324.26712641  .00040583  00000+0  73371-3 0  9999
2 66219  53.1598  21.9143 0001065  85.4823 274.6308 15.49318709  4853
STARLINK-35677          
1 66220U 25244Q   25324.26643374  .00089552  00000+0  15963-2 0  9998
2 66220  53.1596  21.9096 0001302  77.9800 282.1355 15.49372021  4858
STARLINK-35704          
1 66221U 25244R   25324.26609556  .00092138  00000+0  16430-2 0  9997
2 66221  53.1598  21.9068 0001246  81.6296 278.4854 15.49348116  4858
STARLINK-35666          
1 66222U 25244S   25324.26541029  .00078056  00000+0  13970-2 0  9997
2 66222  53.1597  21.9025 0001319  89.1461 270.9699 15.49319597  4854
STARLINK-35664          
1 66223U 25244T   25324.26575376  .00055474  00000+0  99769-3 0  9990
2 66223  53.1598  21.9060 0001446  61.6779 298.4376 15.49329399  4851
