CCSDS_OMM_VERS = 2.0
CREATION_DATE  = 
ORIGINATOR     = 

OBJECT_NAME    = STARLINK-35710
OBJECT_ID      = 2025-244G
CENTER_NAME    = EARTH
REF_FRAME      = TEME
TIME_SYSTEM    = UTC
MEAN_ELEMENT_THEORY = SGP/SGP4

EPOCH          = 2025-11-20T06:00:02.000160
MEAN_MOTION    = 15.45953842
ECCENTRICITY   = .0001713
INCLINATION    = 53.1596
RA_OF_ASC_NODE = 22.0242
ARG_OF_PERICENTER = 88.1080
MEAN_ANOMALY   = 162.4349

EPHEMERIS_TYPE = 0
CLASSIFICATION_TYPE = U
NORAD_CAT_ID   = 66212
ELEMENT_SET_NO = 999
REV_AT_EPOCH   = 472
BSTAR          = -.46380469E-1
MEAN_MOTION_DOT = -.2043239E-1
MEAN_MOTION_DDOT = 0

CCSDS_OMM_VERS = 2.0
CREATION_DATE  = 
ORIGINATOR     = 

OBJECT_NAME    = STARLINK-34204
OBJECT_ID      = 2025-244H
CENTER_NAME    = EARTH
REF_FRAME      = TEME
TIME_SYSTEM    = UTC
MEAN_ELEMENT_THEORY = SGP/SGP4

EPOCH          = 2025-11-20T06:00:02.000160
MEAN_MOTION    = 15.43110090
ECCENTRICITY   = .00015023
INCLINATION    = 53.1599
RA_OF_ASC_NODE = 22.0499
ARG_OF_PERICENTER = 85.9658
MEAN_ANOMALY   = 151.7705

EPHEMERIS_TYPE = 0
CLASSIFICATION_TYPE = U
NORAD_CAT_ID   = 66213
ELEMENT_SET_NO = 999
REV_AT_EPOCH   = 491
BSTAR          = -.51398579E-1
MEAN_MOTION_DOT = -.2052312E-1
MEAN_MOTION_DDOT = 0

CCSDS_OMM_VERS = 2.0
CREATION_DATE  = 
ORIGINATOR     = 

OBJECT_NAME    = STARLINK-35714
OBJECT_ID      = 2025-244J
CENTER_NAME    = EARTH
REF_FRAME      = TEME
TIME_SYSTEM    = UTC
MEAN_ELEMENT_THEORY = SGP/SGP4

EPOCH          = 2025-11-20T03:19:22.594080
MEAN_MOTION    = 15.49372438
ECCENTRICITY   = .00033055
INCLINATION    = 53.1598
RA_OF_ASC_NODE = 22.5335
ARG_OF_PERICENTER = 78.4806
MEAN_ANOMALY   = 281.6574

EPHEMERIS_TYPE = 0
CLASSIFICATION_TYPE = U
NORAD_CAT_ID   = 66214
ELEMENT_SET_NO = 999
REV_AT_EPOCH   = 483
BSTAR          = .12976469E-2
MEAN_MOTION_DOT = .72566E-3
MEAN_MOTION_DDOT = 0

CCSDS_OMM_VERS = 2.0
CREATION_DATE  = 
ORIGINATOR     = 

OBJECT_NAME    = STARLINK-35712
OBJECT_ID      = 2025-244K
CENTER_NAME    = EARTH
REF_FRAME      = TEME
TIME_SYSTEM    = UTC
MEAN_ELEMENT_THEORY = SGP/SGP4

EPOCH          = 2025-11-20T06:24:10.045152
MEAN_MOTION    = 15.49322845
ECCENTRICITY   = .00011753
INCLINATION    = 53.1598
RA_OF_ASC_NODE = 21.9119
ARG_OF_PERICENTER = 86.8014
MEAN_ANOMALY   = 273.3130

EPHEMERIS_TYPE = 0
CLASSIFICATION_TYPE = U
NORAD_CAT_ID   = 66215
ELEMENT_SET_NO = 999
REV_AT_EPOCH   = 485
BSTAR          = .86560749E-3
MEAN_MOTION_DOT = .48013E-3
MEAN_MOTION_DDOT = 0

CCSDS_OMM_VERS = 2.0
CREATION_DATE  = 
ORIGINATOR     = 

OBJECT_NAME    = STARLINK-35709
OBJECT_ID      = 2025-244L
CENTER_NAME    = EARTH
REF_FRAME      = TEME
TIME_SYSTEM    = UTC
MEAN_ELEMENT_THEORY = SGP/SGP4

EPOCH          = 2025-11-20T06:00:02.000160
MEAN_MOTION    = 15.45942636
ECCENTRICITY   = .00016641
INCLINATION    = 53.1595
RA_OF_ASC_NODE = 22.0209
ARG_OF_PERICENTER = 91.8488
MEAN_ANOMALY   = 160.5824

EPHEMERIS_TYPE = 0
CLASSIFICATION_TYPE = U
NORAD_CAT_ID   = 66216
ELEMENT_SET_NO = 999
REV_AT_EPOCH   = 459
BSTAR          = -.46335363E-1
MEAN_MOTION_DOT = -.2040734E-1
MEAN_MOTION_DDOT = 0

CCSDS_OMM_VERS = 2.0
CREATION_DATE  = 
ORIGINATOR     = 

OBJECT_NAME    = STARLINK-35700
OBJECT_ID      = 2025-244M
CENTER_NAME    = EARTH
REF_FRAME      = TEME
TIME_SYSTEM    = UTC
MEAN_ELEMENT_THEORY = SGP/SGP4

EPOCH          = 2025-11-20T00:00:02.999808
MEAN_MOTION    = 15.49697071
ECCENTRICITY   = .00009164
INCLINATION    = 53.1603
RA_OF_ASC_NODE = 23.2026
ARG_OF_PERICENTER = 96.7453
MEAN_ANOMALY   = 207.0168

EPHEMERIS_TYPE = 0
CLASSIFICATION_TYPE = U
NORAD_CAT_ID   = 66217
ELEMENT_SET_NO = 999
REV_AT_EPOCH   = 455
BSTAR          = -.34249536E-1
MEAN_MOTION_DOT = -.172237E-1
MEAN_MOTION_DDOT = 0

CCSDS_OMM_VERS = 2.0
CREATION_DATE  = 
ORIGINATOR     = 

OBJECT_NAME    = STARLINK-35722
OBJECT_ID      = 2025-244N
CENTER_NAME    = EARTH
REF_FRAME      = TEME
TIME_SYSTEM    = UTC
MEAN_ELEMENT_THEORY = SGP/SGP4

EPOCH          = 2025-11-20T04:52:46.360704
MEAN_MOTION    = 15.49329213
ECCENTRICITY   = .00009656
INCLINATION    = 53.1612
RA_OF_ASC_NODE = 22.2289
ARG_OF_PERICENTER = 207.8193
MEAN_ANOMALY   = 152.2764

EPHEMERIS_TYPE = 0
CLASSIFICATION_TYPE = U
NORAD_CAT_ID   = 66218
ELEMENT_SET_NO = 999
REV_AT_EPOCH   = 484
BSTAR          = .16944623E-2
MEAN_MOTION_DOT = .95012E-3
MEAN_MOTION_DDOT = 0

CCSDS_OMM_VERS = 2.0
CREATION_DATE  = 
ORIGINATOR     = 

OBJECT_NAME    = STARLINK-35737
OBJECT_ID      = 2025-244P
CENTER_NAME    = EARTH
REF_FRAME      = TEME
TIME_SYSTEM    = UTC
MEAN_ELEMENT_THEORY = SGP/SGP4

EPOCH          = 2025-11-20T06:24:39.721824
MEAN_MOTION    = 15.49318709
ECCENTRICITY   = .00010658
INCLINATION    = 53.1598
RA_OF_ASC_NODE = 21.9143
ARG_OF_PERICENTER = 85.4823
MEAN_ANOMALY   = 274.6308

EPHEMERIS_TYPE = 0
CLASSIFICATION_TYPE = U
NORAD_CAT_ID   = 66219
ELEMENT_SET_NO = 999
REV_AT_EPOCH   = 485
BSTAR          = .73370579E-3
MEAN_MOTION_DOT = .40583E-3
MEAN_MOTION_DDOT = 0

CCSDS_OMM_VERS = 2.0
CREATION_DATE  = 
ORIGINATOR     = 

OBJECT_NAME    = STARLINK-35677
OBJECT_ID      = 2025-244Q
CENTER_NAME    = EARTH
REF_FRAME      = TEME
TIME_SYSTEM    = UTC
MEAN_ELEMENT_THEORY = SGP/SGP4

EPOCH          = 2025-11-20T06:23:39.875136
MEAN_MOTION    = 15.49372021
ECCENTRICITY   = .00013028
INCLINATION    = 53.1596
RA_OF_ASC_NODE = 21.9096
ARG_OF_PERICENTER = 77.9800
MEAN_ANOMALY   = 282.1355

EPHEMERIS_TYPE = 0
CLASSIFICATION_TYPE = U
NORAD_CAT_ID   = 66220
ELEMENT_SET_NO = 999
REV_AT_EPOCH   = 485
BSTAR          = .15962669E-2
MEAN_MOTION_DOT = .89552E-3
MEAN_MOTION_DDOT = 0

CCSDS_OMM_VERS = 2.0
CREATION_DATE  = 
ORIGINATOR     = 

OBJECT_NAME    = STARLINK-35704
OBJECT_ID      = 2025-244R
CENTER_NAME    = EARTH
REF_FRAME      = TEME
TIME_SYSTEM    = UTC
MEAN_ELEMENT_THEORY = SGP/SGP4

EPOCH          = 2025-11-20T06:23:10.656384
MEAN_MOTION    = 15.49348116
ECCENTRICITY   = .00012462
INCLINATION    = 53.1598
RA_OF_ASC_NODE = 21.9068
ARG_OF_PERICENTER = 81.6296
MEAN_ANOMALY   = 278.4854

EPHEMERIS_TYPE = 0
CLASSIFICATION_TYPE = U
NORAD_CAT_ID   = 66221
ELEMENT_SET_NO = 999
REV_AT_EPOCH   = 485
BSTAR          = .16429642E-2
MEAN_MOTION_DOT = .92138E-3
MEAN_MOTION_DDOT = 0

CCSDS_OMM_VERS = 2.0
CREATION_DATE  = 
ORIGINATOR     = 

OBJECT_NAME    = STARLINK-35666
OBJECT_ID      = 2025-244S
CENTER_NAME    = EARTH
REF_FRAME      = TEME
TIME_SYSTEM    = UTC
MEAN_ELEMENT_THEORY = SGP/SGP4

EPOCH          = 2025-11-20T06:22:11.449056
MEAN_MOTION    = 15.49319597
ECCENTRICITY   = .00013194
INCLINATION    = 53.1597
RA_OF_ASC_NODE = 21.9025
ARG_OF_PERICENTER = 89.1461
MEAN_ANOMALY   = 270.9699

EPHEMERIS_TYPE = 0
CLASSIFICATION_TYPE = U
NORAD_CAT_ID   = 66222
ELEMENT_SET_NO = 999
REV_AT_EPOCH   = 485
BSTAR          = .13969883E-2
MEAN_MOTION_DOT = .78056E-3
MEAN_MOTION_DDOT = 0

CCSDS_OMM_VERS = 2.0
CREATION_DATE  = 
ORIGINATOR     = 

OBJECT_NAME    = STARLINK-35664
OBJECT_ID      = 2025-244T
CENTER_NAME    = EARTH
REF_FRAME      = TEME
TIME_SYSTEM    = UTC
MEAN_ELEMENT_THEORY = SGP/SGP4

EPOCH          = 2025-11-20T06:22:41.124864
MEAN_MOTION    = 15.49329399
ECCENTRICITY   = .00014466
INCLINATION    = 53.1598
RA_OF_ASC_NODE = 21.9060
ARG_OF_PERICENTER = 61.6779
MEAN_ANOMALY   = 298.4376

EPHEMERIS_TYPE = 0
CLASSIFICATION_TYPE = U
NORAD_CAT_ID   = 66223
ELEMENT_SET_NO = 999
REV_AT_EPOCH   = 485
BSTAR          = .99769027E-3
MEAN_MOTION_DOT = .55474E-3
MEAN_MOTION_DDOT = 0

